$$SOE
2460154.500000000, A.D. 2023-Jul-29 00:00:00.0000, 4.172609344170123E+08, -1.840830527416764E+08, -5.473228952507217E+07,
2460161.500000000, A.D. 2023-Aug-05 00:00:00.0000, 4.210057406614646E+08, -1.735854108517485E+08, -5.796511105372678E+07,
2460168.500000000, A.D. 2023-Aug-12 00:00:00.0000, 4.245392730332742E+08, -1.630005885642587E+08, -6.116883614836287E+07,
2460175.500000000, A.D. 2023-Aug-19 00:00:00.0000, 4.278594628228575E+08, -1.523337836300632E+08, -6.434181401858762E+07,
2460182.500000000, A.D. 2023-Aug-26 00:00:00.0000, 4.309644324217853E+08, -1.415902814510409E+08, -6.748241818566895E+07,
2460189.500000000, A.D. 2023-Sep-02 00:00:00.0000, 4.338524991586518E+08, -1.307754460967153E+08, -7.058904939588606E+07,
2460196.500000000, A.D. 2023-Sep-09 00:00:00.0000, 4.365221785675460E+08, -1.198947111690342E+08, -7.366013847167987E+07,
2460203.500000000, A.D. 2023-Sep-16 00:00:00.0000, 4.389721872389333E+08, -1.089535706148853E+08, -7.669414910625866E+07,
2460210.500000000, A.D. 2023-Sep-23 00:00:00.0000, 4.412014456558086E+08, -9.795756924216175E+07, -7.968958060258165E+07,
2460217.500000000, A.D. 2023-Sep-30 00:00:00.0000, 4.432090806685577E+08, -8.691229179255487E+07, -8.264497041567397E+07,
2460224.500000000, A.D. 2023-Oct-07 00:00:00.0000, 4.449944252542934E+08, -7.582335116097954E+07, -8.555889631589627E+07,
2460231.500000000, A.D. 2023-Oct-14 00:00:00.0000, 4.465570166020681E+08, -6.469637912435579E+07, -8.842997852936511E+07,
2460238.500000000, A.D. 2023-Oct-21 00:00:00.0000, 4.478965957550612E+08, -5.353701802506839E+07, -9.125688201088917E+07,
2460245.500000000, A.D. 2023-Oct-28 00:00:00.0000, 4.490131073925778E+08, -4.235091119528347E+07, -9.403831852518706E+07,
2460252.500000000, A.D. 2023-Nov-04 00:00:00.0000, 4.499066985138212E+08, -3.114369293813110E+07, -9.677304847706364E+07,
2460259.500000000, A.D. 2023-Nov-11 00:00:00.0000, 4.505777162166133E+08, -1.992097870998933E+07, -9.945988254933928E+07,
2460266.500000000, A.D. 2023-Nov-18 00:00:00.0000, 4.510267048096008E+08, -8.688355610627361E+06, -1.020976831685392E+08,
2460273.500000000, A.D. 2023-Nov-25 00:00:00.0000, 4.512544023532276E+08, 2.548626801133566E+06, -1.046853657990419E+08,
2460280.500000000, A.D. 2023-Dec-02 00:00:00.0000, 4.512617366833749E+08, 1.378446531725911E+07, -1.072219000663874E+08,
2460287.500000000, A.D. 2023-Dec-09 00:00:00.0000, 4.510498210241454E+08, 2.501371142164590E+07, -1.097063107202720E+08,
2460294.500000000, A.D. 2023-Dec-16 00:00:00.0000, 4.506199495080478E+08, 3.623097914238755E+07, -1.121376784623383E+08,
2460301.500000000, A.D. 2023-Dec-23 00:00:00.0000, 4.499735929838082E+08, 4.743095307325154E+07, -1.145151406151119E+08,
2460308.500000000, A.D. 2023-Dec-30 00:00:00.0000, 4.491123938057343E+08, 5.860839758899976E+07, -1.168378914252588E+08,
2460315.500000000, A.D. 2024-Jan-06 00:00:00.0000, 4.480381578704578E+08, 6.975816487209065E+07, -1.191051820356519E+08,
2460322.500000000, A.D. 2024-Jan-13 00:00:00.0000, 4.467528471119511E+08, 8.087519992337751E+07, -1.213163205699059E+08,
2460329.500000000, A.D. 2024-Jan-20 00:00:00.0000, 4.452585737146737E+08, 9.195454562510917E+07, -1.234706721944069E+08,
2460336.500000000, A.D. 2024-Jan-27 00:00:00.0000, 4.435575940535475E+08, 1.029913484967085E+08, -1.255676589244034E+08,
2460343.500000000, A.D. 2024-Feb-03 00:00:00.0000, 4.416523019706639E+08, 1.139808641861608E+08, -1.276067592194485E+08,
2460350.500000000, A.D. 2024-Feb-10 00:00:00.0000, 4.395452217039472E+08, 1.249184624003762E+08, -1.295875074251439E+08,
2460357.500000000, A.D. 2024-Feb-17 00:00:00.0000, 4.372390006435037E+08, 1.357996312800729E+08, -1.315094930814511E+08,
2460364.500000000, A.D. 2024-Feb-24 00:00:00.0000, 4.347364019876346E+08, 1.466199812346787E+08, -1.333723601082834E+08,
2460371.500000000, A.D. 2024-Mar-02 00:00:00.0000, 4.320402973627837E+08, 1.573752482083509E+08, -1.351758058827314E+08,
2460378.500000000, A.D. 2024-Mar-09 00:00:00.0000, 4.291536595798998E+08, 1.680612963204702E+08, -1.369195802351491E+08,
2460385.500000000, A.D. 2024-Mar-16 00:00:00.0000, 4.260795559544531E+08, 1.786741200860616E+08, -1.386034843936754E+08,
2460392.500000000, A.D. 2024-Mar-23 00:00:00.0000, 4.228211421156029E+08, 1.892098473354132E+08, -1.402273697859781E+08,
2460399.500000000, A.D. 2024-Mar-30 00:00:00.0000, 4.193816540904874E+08, 1.996647428199588E+08, -1.417911365038221E+08,
2460406.500000000, A.D. 2024-Apr-06 00:00:00.0000, 4.157643989474356E+08, 2.100352091528648E+08, -1.432947317395086E+08,
2460413.500000000, A.D. 2024-Apr-13 00:00:00.0000, 4.119727475745634E+08, 2.203177859360271E+08, -1.447381484614417E+08,
2460420.500000000, A.D. 2024-Apr-20 00:00:00.0000, 4.080101286627818E+08, 2.305091497666725E+08, -1.461214240313213E+08,
2460427.500000000, A.D. 2024-Apr-27 00:00:00.0000, 4.038800223955967E+08, 2.406061145806161E+08, -1.474446386781811E+08,
2460434.500000000, A.D. 2024-May-04 00:00:00.0000, 3.995859539512719E+08, 2.506056316479442E+08, -1.487079139030848E+08,
2460441.500000000, A.D. 2024-May-11 00:00:00.0000, 3.951314870708996E+08, 2.605047891389904E+08, -1.499114108522740E+08,
2460448.500000000, A.D. 2024-May-18 00:00:00.0000, 3.905202177870578E+08, 2.703008113026718E+08, -1.510553286714982E+08,
2460455.500000000, A.D. 2024-May-25 00:00:00.0000, 3.857557683483440E+08, 2.799910572714594E+08, -1.521399028510238E+08,
2460462.500000000, A.D. 2024-Jun-01 00:00:00.0000, 3.808417814086921E+08, 2.895730194577261E+08, -1.531654035781569E+08,
2460469.500000000, A.D. 2024-Jun-08 00:00:00.0000, 3.757819147358704E+08, 2.990443215408193E+08, -1.541321341285471E+08,
2460476.500000000, A.D. 2024-Jun-15 00:00:00.0000, 3.705798368455741E+08, 3.084027166112545E+08, -1.550404292948925E+08,
2460483.500000000, A.D. 2024-Jun-22 00:00:00.0000, 3.652392225603488E+08, 3.176460866670354E+08, -1.558906536701315E+08,
2460490.500000000, A.D. 2024-Jun-29 00:00:00.0000, 3.597637463738528E+08, 3.267724416616757E+08, -1.566831997439524E+08,
2460497.500000000, A.D. 2024-Jul-06 00:00:00.0000, 3.541570762678592E+08, 3.357799156533666E+08, -1.574184862625046E+08,
2460504.500000000, A.D. 2024-Jul-13 00:00:00.0000, 3.484228699321551E+08, 3.446667628973460E+08, -1.580969568036387E+08,
2460511.500000000, A.D. 2024-Jul-20 00:00:00.0000, 3.425647713997341E+08, 3.534313550472525E+08, -1.587190782946964E+08,
2460518.500000000, A.D. 2024-Jul-27 00:00:00.0000, 3.365864074382935E+08, 3.620721785232382E+08, -1.592853394940524E+08,
2460525.500000000, A.D. 2024-Aug-03 00:00:00.0000, 3.304913839673913E+08, 3.705878316885655E+08, -1.597962494949897E+08,
2460532.500000000, A.D. 2024-Aug-10 00:00:00.0000, 3.242832826626729E+08, 3.789770218461111E+08, -1.602523362701152E+08,
2460539.500000000, A.D. 2024-Aug-17 00:00:00.0000, 3.179656577893711E+08, 3.872385620915868E+08, -1.606541452611997E+08,
2460546.500000000, A.D. 2024-Aug-24 00:00:00.0000, 3.115420332871119E+08, 3.953713680155272E+08, -1.610022380208374E+08,
2460553.500000000, A.D. 2024-Aug-31 00:00:00.0000, 3.050159002153128E+08, 4.033744542060828E+08, -1.612971909233209E+08,
2460560.500000000, A.D. 2024-Sep-07 00:00:00.0000, 2.983907149180337E+08, 4.112469306916893E+08, -1.615395939695251E+08,
2460567.500000000, A.D. 2024-Sep-14 00:00:00.0000, 2.916698979867304E+08, 4.189880003308710E+08, -1.617300496134857E+08,
2460574.500000000, A.D. 2024-Sep-21 00:00:00.0000, 2.848568319842761E+08, 4.265969575714765E+08, -1.618691713911863E+08,
2460581.500000000, A.D. 2024-Sep-28 00:00:00.0000, 2.779548574339775E+08, 4.340731853616803E+08, -1.619575825707663E+08,
2460588.500000000, A.D. 2024-Oct-05 00:00:00.0000, 2.709672707358524E+08, 4.414161502245653E+08, -1.619959151616449E+08,
2460595.500000000, A.D. 2024-Oct-12 00:00:00.0000, 2.638973236423051E+08, 4.486253984841976E+08, -1.619848090062405E+08,
2460602.500000000, A.D. 2024-Oct-19 00:00:00.0000, 2.567482225339999E+08, 4.557005533791218E+08, -1.619249108152849E+08,
2460609.500000000, A.D. 2024-Oct-26 00:00:00.0000, 2.495231274552684E+08, 4.626413122684695E+08, -1.618168732087186E+08,
2460616.500000000, A.D. 2024-Nov-02 00:00:00.0000, 2.422251511584096E+08, 4.694474437883399E+08, -1.616613537973125E+08,
2460623.500000000, A.D. 2024-Nov-09 00:00:00.0000, 2.348573582456681E+08, 4.761187849845111E+08, -1.614590143114322E+08,
2460630.500000000, A.D. 2024-Nov-16 00:00:00.0000, 2.274227644270667E+08, 4.826552384264309E+08, -1.612105197783590E+08,
2460637.500000000, A.D. 2024-Nov-23 00:00:00.0000, 2.199243359333615E+08, 4.890567692566899E+08, -1.609165377554693E+08,
2460644.500000000, A.D. 2024-Nov-30 00:00:00.0000, 2.123649892848345E+08, 4.953234021369721E+08, -1.605777376407281E+08,
2460651.500000000, A.D. 2024-Dec-07 00:00:00.0000, 2.047475918280800E+08, 5.014552185143948E+08, -1.601947900635257E+08,
2460658.500000000, A.D. 2024-Dec-14 00:00:00.0000, 1.970749623453606E+08, 5.074523554346984E+08, -1.597683661915250E+08,
2460665.500000000, A.D. 2024-Dec-21 00:00:00.0000, 1.893498694109074E+08, 5.133150046628343E+08, -1.592991368405172E+08,
2460672.500000000, A.D. 2024-Dec-28 00:00:00.0000, 1.815750294591901E+08, 5.190434091454467E+08, -1.587877718091820E+08,
2460679.500000000, A.D. 2025-Jan-04 00:00:00.0000, 1.737531071564237E+08, 5.246378591936121E+08, -1.582349394819739E+08,
2460686.500000000, A.D. 2025-Jan-11 00:00:00.0000, 1.658867162486809E+08, 5.300986900461352E+08, -1.576413063959904E+08,
2460693.500000000, A.D. 2025-Jan-18 00:00:00.0000, 1.579784199638140E+08, 5.354262798943263E+08, -1.570075367608347E+08,
2460700.500000000, A.D. 2025-Jan-25 00:00:00.0000, 1.500307312047695E+08, 5.406210478935016E+08, -1.563342919906979E+08,
2460707.500000000, A.D. 2025-Feb-01 00:00:00.0000, 1.420461127180837E+08, 5.456834521309332E+08, -1.556222302667827E+08,
2460714.500000000, A.D. 2025-Feb-08 00:00:00.0000, 1.340269772905598E+08, 5.506139875698335E+08, -1.548720061323233E+08,
2460721.500000000, A.D. 2025-Feb-15 00:00:00.0000, 1.259756879979693E+08, 5.554131839492568E+08, -1.540842701231818E+08,
$$EOE